[
  {
    "OBJECT_NAME": "MOZHAYETS 4 (RS-22)",
    "OBJECT_ID": "2003-042A",
    "EPOCH": "2025-06-07T20:21:47.311200",
    "MEAN_MOTION": 14.72351983,
    "ECCENTRICITY": 0.0011812,
    "INCLINATION": 98.3278,
    "RA_OF_ASC_NODE": 328.2582,
    "ARG_OF_PERICENTER": 21.9711,
    "MEAN_ANOMALY": 108.0154,
    "EPHEMERIS_TYPE": 0,
    "CLASSIFICATION_TYPE": "U",
    "NORAD_CAT_ID": 27939,
    "ELEMENT_SET_NO": 999,
    "REV_AT_EPOCH": 16057,
    "BSTAR": 0.00015856,
    "MEAN_MOTION_DOT": 9.51e-06,
    "MEAN_MOTION_DDOT": 0
  },
  {
    "OBJECT_NAME": "CUBESAT XI-V",
    "OBJECT_ID": "2005-043F",
    "EPOCH": "2025-06-07T21:15:23.332608",
    "MEAN_MOTION": 14.71010986,
    "ECCENTRICITY": 0.0013476,
    "INCLINATION": 98.2497,
    "RA_OF_ASC_NODE": 303.2146,
    "ARG_OF_PERICENTER": 315.9663,
    "MEAN_ANOMALY": 44.0469,
    "EPHEMERIS_TYPE": 0,
    "CLASSIFICATION_TYPE": "U",
    "NORAD_CAT_ID": 28895,
    "ELEMENT_SET_NO": 999,
    "REV_AT_EPOCH": 4692,
    "BSTAR": 0.0002176,
    "MEAN_MOTION_DOT": 1.285e-05,
    "MEAN_MOTION_DDOT": 0
  },
  {
    "OBJECT_NAME": "CUTE-1.7+APD II (CO-65)",
    "OBJECT_ID": "2008-021C",
    "EPOCH": "2025-06-07T13:02:22.111872",
    "MEAN_MOTION": 15.04408346,
    "ECCENTRICITY": 0.000892,
    "INCLINATION": 97.783,
    "RA_OF_ASC_NODE": 129.6905,
    "ARG_OF_PERICENTER": 212.8086,
    "MEAN_ANOMALY": 147.2587,
    "EPHEMERIS_TYPE": 0,
    "CLASSIFICATION_TYPE": "U",
    "NORAD_CAT_ID": 32785,
    "ELEMENT_SET_NO": 999,
    "REV_AT_EPOCH": 92877,
    "BSTAR": 0.00032535,
    "MEAN_MOTION_DOT": 4.485e-05,
    "MEAN_MOTION_DDOT": 0
  },
  {
    "OBJECT_NAME": "SEEDS II (CO-66)",
    "OBJECT_ID": "2008-021J",
    "EPOCH": "2025-06-07T09:32:31.718976",
    "MEAN_MOTION": 15.18663424,
    "ECCENTRICITY": 0.0004541,
    "INCLINATION": 97.7266,
    "RA_OF_ASC_NODE": 138.3897,
    "ARG_OF_PERICENTER": 147.8243,
    "MEAN_ANOMALY": 212.3269,
    "EPHEMERIS_TYPE": 0,
    "CLASSIFICATION_TYPE": "U",
    "NORAD_CAT_ID": 32791,
    "ELEMENT_SET_NO": 999,
    "REV_AT_EPOCH": 93016,
    "BSTAR": 0.00041372,
    "MEAN_MOTION_DOT": 8.508e-05,
    "MEAN_MOTION_DDOT": 0
  },
  {
    "OBJECT_NAME": "YUBILEINY (RS-30)",
    "OBJECT_ID": "2008-025A",
    "EPOCH": "2025-06-07T20:56:59.703072",
    "MEAN_MOTION": 12.43164902,
    "ECCENTRICITY": 0.0020097,
    "INCLINATION": 82.5033,
    "RA_OF_ASC_NODE": 228.2385,
    "ARG_OF_PERICENTER": 52.8094,
    "MEAN_ANOMALY": 307.4817,
    "EPHEMERIS_TYPE": 0,
    "CLASSIFICATION_TYPE": "U",
    "NORAD_CAT_ID": 32953,
    "ELEMENT_SET_NO": 999,
    "REV_AT_EPOCH": 77332,
    "BSTAR": 4.1471e-05,
    "MEAN_MOTION_DOT": 1.6e-07,
    "MEAN_MOTION_DDOT": 0
  },
  {
    "OBJECT_NAME": "KKS-1 (KISEKI)",
    "OBJECT_ID": "2009-002H",
    "EPOCH": "2025-06-07T20:02:33.817632",
    "MEAN_MOTION": 14.81619859,
    "ECCENTRICITY": 0.0009522,
    "INCLINATION": 98.1209,
    "RA_OF_ASC_NODE": 70.8773,
    "ARG_OF_PERICENTER": 66.3699,
    "MEAN_ANOMALY": 293.8512,
    "EPHEMERIS_TYPE": 0,
    "CLASSIFICATION_TYPE": "U",
    "NORAD_CAT_ID": 33499,
    "ELEMENT_SET_NO": 999,
    "REV_AT_EPOCH": 88116,
    "BSTAR": 0.00016478,
    "MEAN_MOTION_DOT": 1.241e-05,
    "MEAN_MOTION_DDOT": 0
  },
  {
    "OBJECT_NAME": "SWISSCUBE",
    "OBJECT_ID": "2009-051B",
    "EPOCH": "2025-06-07T10:32:48.281280",
    "MEAN_MOTION": 14.61333534,
    "ECCENTRICITY": 0.0005891,
    "INCLINATION": 98.431,
    "RA_OF_ASC_NODE": 54.6342,
    "ARG_OF_PERICENTER": 306.7042,
    "MEAN_ANOMALY": 53.3616,
    "EPHEMERIS_TYPE": 0,
    "CLASSIFICATION_TYPE": "U",
    "NORAD_CAT_ID": 35932,
    "ELEMENT_SET_NO": 999,
    "REV_AT_EPOCH": 83440,
    "BSTAR": 0.0002037,
    "MEAN_MOTION_DOT": 9.57e-06,
    "MEAN_MOTION_DDOT": 0
  },
  {
    "OBJECT_NAME": "BEESAT-1",
    "OBJECT_ID": "2009-051C",
    "EPOCH": "2025-06-07T16:29:13.028640",
    "MEAN_MOTION": 14.60748777,
    "ECCENTRICITY": 0.0004583,
    "INCLINATION": 98.4242,
    "RA_OF_ASC_NODE": 55.2439,
    "ARG_OF_PERICENTER": 324.2503,
    "MEAN_ANOMALY": 35.8389,
    "EPHEMERIS_TYPE": 0,
    "CLASSIFICATION_TYPE": "U",
    "NORAD_CAT_ID": 35933,
    "ELEMENT_SET_NO": 999,
    "REV_AT_EPOCH": 83457,
    "BSTAR": 0.00017792,
    "MEAN_MOTION_DOT": 8.19e-06,
    "MEAN_MOTION_DDOT": 0
  },
  {
    "OBJECT_NAME": "ITUPSAT1",
    "OBJECT_ID": "2009-051E",
    "EPOCH": "2025-06-07T16:51:18.655200",
    "MEAN_MOTION": 14.59546475,
    "ECCENTRICITY": 0.0006957,
    "INCLINATION": 98.4336,
    "RA_OF_ASC_NODE": 54.8019,
    "ARG_OF_PERICENTER": 329.2664,
    "MEAN_ANOMALY": 30.8127,
    "EPHEMERIS_TYPE": 0,
    "CLASSIFICATION_TYPE": "U",
    "NORAD_CAT_ID": 35935,
    "ELEMENT_SET_NO": 999,
    "REV_AT_EPOCH": 83412,
    "BSTAR": 0.0001661,
    "MEAN_MOTION_DOT": 7.41e-06,
    "MEAN_MOTION_DDOT": 0
  },
  {
    "OBJECT_NAME": "XIWANG-1 (HOPE-1)",
    "OBJECT_ID": "2009-072B",
    "EPOCH": "2025-06-07T08:07:01.184160",
    "MEAN_MOTION": 13.16425088,
    "ECCENTRICITY": 0.0007726,
    "INCLINATION": 100.3488,
    "RA_OF_ASC_NODE": 114.1619,
    "ARG_OF_PERICENTER": 15.6058,
    "MEAN_ANOMALY": 344.5292,
    "EPHEMERIS_TYPE": 0,
    "CLASSIFICATION_TYPE": "U",
    "NORAD_CAT_ID": 36122,
    "ELEMENT_SET_NO": 999,
    "REV_AT_EPOCH": 74368,
    "BSTAR": -1.9966e-05,
    "MEAN_MOTION_DOT": -5.2e-07,
    "MEAN_MOTION_DDOT": 0
  },
  {
    "OBJECT_NAME": "O/OREOS (USA 219)",
    "OBJECT_ID": "2010-062C",
    "EPOCH": "2025-06-07T13:15:58.549536",
    "MEAN_MOTION": 14.91458097,
    "ECCENTRICITY": 0.0013126,
    "INCLINATION": 71.9707,
    "RA_OF_ASC_NODE": 207.4434,
    "ARG_OF_PERICENTER": 55.7151,
    "MEAN_ANOMALY": 304.5259,
    "EPHEMERIS_TYPE": 0,
    "CLASSIFICATION_TYPE": "U",
    "NORAD_CAT_ID": 37224,
    "ELEMENT_SET_NO": 999,
    "REV_AT_EPOCH": 6074,
    "BSTAR": 0.00016986,
    "MEAN_MOTION_DOT": 1.64e-05,
    "MEAN_MOTION_DDOT": 0
  },
  {
    "OBJECT_NAME": "JUGNU",
    "OBJECT_ID": "2011-058B",
    "EPOCH": "2025-06-07T20:22:59.124288",
    "MEAN_MOTION": 14.13603255,
    "ECCENTRICITY": 0.0018513,
    "INCLINATION": 19.9615,
    "RA_OF_ASC_NODE": 62.35,
    "ARG_OF_PERICENTER": 262.3107,
    "MEAN_ANOMALY": 156.1159,
    "EPHEMERIS_TYPE": 0,
    "CLASSIFICATION_TYPE": "U",
    "NORAD_CAT_ID": 37839,
    "ELEMENT_SET_NO": 999,
    "REV_AT_EPOCH": 70610,
    "BSTAR": 7.5445e-05,
    "MEAN_MOTION_DOT": 4.11e-06,
    "MEAN_MOTION_DDOT": 0
  },
  {
    "OBJECT_NAME": "SRMSAT",
    "OBJECT_ID": "2011-058D",
    "EPOCH": "2025-06-07T06:30:02.121696",
    "MEAN_MOTION": 14.11435449,
    "ECCENTRICITY": 0.001191,
    "INCLINATION": 19.97,
    "RA_OF_ASC_NODE": 168.5217,
    "ARG_OF_PERICENTER": 40.2792,
    "MEAN_ANOMALY": 58.1286,
    "EPHEMERIS_TYPE": 0,
    "CLASSIFICATION_TYPE": "U",
    "NORAD_CAT_ID": 37841,
    "ELEMENT_SET_NO": 999,
    "REV_AT_EPOCH": 70478,
    "BSTAR": 7.7657e-05,
    "MEAN_MOTION_DOT": 4.07e-06,
    "MEAN_MOTION_DDOT": 0
  },
  {
    "OBJECT_NAME": "STRAND-1",
    "OBJECT_ID": "2013-009E",
    "EPOCH": "2025-06-07T10:43:32.428704",
    "MEAN_MOTION": 14.36817338,
    "ECCENTRICITY": 0.0007454,
    "INCLINATION": 98.3825,
    "RA_OF_ASC_NODE": 343.1992,
    "ARG_OF_PERICENTER": 271.5152,
    "MEAN_ANOMALY": 88.5181,
    "EPHEMERIS_TYPE": 0,
    "CLASSIFICATION_TYPE": "U",
    "NORAD_CAT_ID": 39090,
    "ELEMENT_SET_NO": 999,
    "REV_AT_EPOCH": 64324,
    "BSTAR": 0.00010906,
    "MEAN_MOTION_DOT": 2.79e-06,
    "MEAN_MOTION_DDOT": 0
  }
]