MOZHAYETS 4 (RS-22)     
1 27939U 03042A   25158.84846425  .00000951  00000+0  15856-3 0  9993
2 27939  98.3278 328.2582 0011812  21.9711 108.0154 14.72351983160574
CUBESAT XI-V            
1 28895U 05043F   25158.88568672  .00001285  00000+0  21760-3 0  9999
2 28895  98.2497 303.2146 0013476 315.9663  44.0469 14.71010986 46921
CUTE-1.7+APD II (CO-65) 
1 32785U 08021C   25158.54331148  .00004485  00000+0  32535-3 0  9997
2 32785  97.7830 129.6905 0008920 212.8086 147.2587 15.04408346928771
SEEDS II (CO-66)        
1 32791U 08021J   25158.39758934  .00008508  00000+0  41372-3 0  9992
2 32791  97.7266 138.3897 0004541 147.8243 212.3269 15.18663424930167
YUBILEINY (RS-30)       
1 32953U 08025A   25158.87291323  .00000016  00000+0  41471-4 0  9990
2 32953  82.5033 228.2385 0020097  52.8094 307.4817 12.43164902773325
KKS-1 (KISEKI)          
1 33499U 09002H   25158.83511363  .00001241  00000+0  16478-3 0  9996
2 33499  98.1209  70.8773 0009522  66.3699 293.8512 14.81619859881164
SWISSCUBE               
1 35932U 09051B   25158.43944770  .00000957  00000+0  20370-3 0  9991
2 35932  98.4310  54.6342 0005891 306.7042  53.3616 14.61333534834404
BEESAT-1                
1 35933U 09051C   25158.68695635  .00000819  00000+0  17792-3 0  9993
2 35933  98.4242  55.2439 0004583 324.2503  35.8389 14.60748777834575
ITUPSAT1                
1 35935U 09051E   25158.70229925  .00000741  00000+0  16610-3 0  9995
2 35935  98.4336  54.8019 0006957 329.2664  30.8127 14.59546475834125
XIWANG-1 (HOPE-1)       
1 36122U 09072B   25158.33820815 -.00000052  00000+0 -19966-4 0  9996
2 36122 100.3488 114.1619 0007726  15.6058 344.5292 13.16425088743685
O/OREOS (USA 219)       
1 37224U 10062C   25158.55276099  .00001640  00000+0  16986-3 0  9994
2 37224  71.9707 207.4434 0013126  55.7151 304.5259 14.91458097 60745
JUGNU                   
1 37839U 11058B   25158.84929542  .00000411  00000+0  75445-4 0  9993
2 37839  19.9615  62.3500 0018513 262.3107 156.1159 14.13603255706100
SRMSAT                  
1 37841U 11058D   25158.27085789  .00000407  00000+0  77657-4 0  9991
2 37841  19.9700 168.5217 0011910  40.2792  58.1286 14.11435449704789
STRAND-1                
1 39090U 13009E   25158.44690311  .00000279  00000+0  10906-3 0  9999
2 39090  98.3825 343.1992 0007454 271.5152  88.5181 14.36817338643246
